ICECUBE                 
1 42705U 98067LN  17345.92249609  .00026247  00000-0  26853-3 0  9997
2 42705  51.6406 225.1724 0002955 179.5765 180.5234 15.64818756 32656
